{
  "type": "FeatureCollection",
  "features": [
    {
      "type": "Feature",
      "properties": {
        "norad_id": 29268,
        "name": "ARIRANG-2 (KOMPSAT-2)",
        "group": "resource",
        "lat": -69.02582466492562,
        "lon": -21.776202949703922,
        "alt_km": 679.2352465825561,
        "timestamp": "2025-12-16T23:36:35.841405+00:00",
        "meta_object_name": "ARIRANG-2 (KOMPSAT-2)",
        "meta_object_id": "2006-031A",
        "meta_epoch": "2025-12-16T09:38:51.700992",
        "meta_mean_motion": 14.64497752,
        "meta_eccentricity": 0.00133526,
        "meta_inclination": 97.8261,
        "meta_ra_of_asc_node": 178.6961,
        "meta_arg_of_pericenter": 296.7975,
        "meta_mean_anomaly": 128.4364,
        "meta_ephemeris_type": 0,
        "meta_classification_type": "U",
        "meta_norad_cat_id": 29268,
        "meta_element_set_no": 999,
        "meta_rev_at_epoch": 3472,
        "meta_bstar": 9.9138344e-05,
        "meta_mean_motion_dot": 4.81e-06,
        "meta_mean_motion_ddot": 0,
        "tle_line1": "1 29268U 06031A   25350.40198728  .00000481  00000+0  99138-4 0  9997",
        "tle_line2": "2 29268  97.8261 178.6961 0013352 296.7975 128.4364 14.64497752 34722"
      },
      "geometry": {
        "type": "Point",
        "coordinates": [
          -21.776202949703922,
          -69.02582466492562
        ]
      }
    },
    {
      "type": "Feature",
      "properties": {
        "norad_id": 29709,
        "name": "LAPAN-TUBSAT",
        "group": "resource",
        "lat": 31.029040452294822,
        "lon": 166.15842865165462,
        "alt_km": 609.2762474204792,
        "timestamp": "2025-12-16T23:36:35.841416+00:00",
        "meta_object_name": "LAPAN-TUBSAT",
        "meta_object_id": "2007-001A",
        "meta_epoch": "2025-12-16T06:46:51.299616",
        "meta_mean_motion": 14.85679944,
        "meta_eccentricity": 0.00136029,
        "meta_inclination": 98.1257,
        "meta_ra_of_asc_node": 340.5123,
        "meta_arg_of_pericenter": 63.7431,
        "meta_mean_anomaly": 296.518,
        "meta_ephemeris_type": 0,
        "meta_classification_type": "U",
        "meta_norad_cat_id": 29709,
        "meta_element_set_no": 999,
        "meta_rev_at_epoch": 2399,
        "meta_bstar": 0.00015780355,
        "meta_mean_motion_dot": 1.313e-05,
        "meta_mean_motion_ddot": 0,
        "tle_line1": "1 29709U 07001A   25350.28253819  .00001313  00000+0  15780-3 0  9999",
        "tle_line2": "2 29709  98.1257 340.5123 0013602  63.7431 296.5180 14.85679944 23996"
      },
      "geometry": {
        "type": "Point",
        "coordinates": [
          166.15842865165462,
          31.029040452294822
        ]
      }
    },
    {
      "type": "Feature",
      "properties": {
        "norad_id": 31113,
        "name": "HAIYANG-1B",
        "group": "resource",
        "lat": -77.9318738183741,
        "lon": 18.355561202566836,
        "alt_km": 798.7954779023576,
        "timestamp": "2025-12-16T23:36:35.841426+00:00",
        "meta_object_name": "HAIYANG-1B",
        "meta_object_id": "2007-010A",
        "meta_epoch": "2025-12-16T05:31:44.667840",
        "meta_mean_motion": 14.30966253,
        "meta_eccentricity": 0.00141082,
        "meta_inclination": 98.3317,
        "meta_ra_of_asc_node": 334.3643,
        "meta_arg_of_pericenter": 28.1438,
        "meta_mean_anomaly": 332.0505,
        "meta_ephemeris_type": 0,
        "meta_classification_type": "U",
        "meta_norad_cat_id": 31113,
        "meta_element_set_no": 999,
        "meta_rev_at_epoch": 97446,
        "meta_bstar": 6.318835e-05,
        "meta_mean_motion_dot": 1.25e-06,
        "meta_mean_motion_ddot": 0,
        "tle_line1": "1 31113U 07010A   25350.23037810  .00000125  00000+0  63188-4 0  9993",
        "tle_line2": "2 31113  98.3317 334.3643 0014108  28.1438 332.0505 14.30966253974465"
      },
      "geometry": {
        "type": "Point",
        "coordinates": [
          18.355561202566836,
          -77.9318738183741
        ]
      }
    },
    {
      "type": "Feature",
      "properties": {
        "norad_id": 31598,
        "name": "COSMO-SKYMED 1",
        "group": "resource",
        "lat": -76.13162888036103,
        "lon": -37.730477697691555,
        "alt_km": 588.2468790885814,
        "timestamp": "2025-12-16T23:36:35.841437+00:00",
        "meta_object_name": "COSMO-SKYMED 1",
        "meta_object_id": "2007-023A",
        "meta_epoch": "2025-12-16T08:00:29.583936",
        "meta_mean_motion": 14.95793559,
        "meta_eccentricity": 0.00014789,
        "meta_inclination": 97.8834,
        "meta_ra_of_asc_node": 175.7561,
        "meta_arg_of_pericenter": 88.7318,
        "meta_mean_anomaly": 271.4072,
        "meta_ephemeris_type": 0,
        "meta_classification_type": "U",
        "meta_norad_cat_id": 31598,
        "meta_element_set_no": 999,
        "meta_rev_at_epoch": 244,
        "meta_bstar": 0.00032589097,
        "meta_mean_motion_dot": 3.577e-05,
        "meta_mean_motion_ddot": 0,
        "tle_line1": "1 31598U 07023A   25350.33367574  .00003577  00000+0  32589-3 0  9992",
        "tle_line2": "2 31598  97.8834 175.7561 0001478  88.7318 271.4072 14.95793559  2444"
      },
      "geometry": {
        "type": "Point",
        "coordinates": [
          -37.730477697691555,
          -76.13162888036103
        ]
      }
    },
    {
      "type": "Feature",
      "properties": {
        "norad_id": 31698,
        "name": "TERRASAR-X",
        "group": "resource",
        "lat": -82.51328082771121,
        "lon": 80.62637404311045,
        "alt_km": 516.9120643567139,
        "timestamp": "2025-12-16T23:36:35.841448+00:00",
        "meta_object_name": "TERRASAR-X",
        "meta_object_id": "2007-026A",
        "meta_epoch": "2025-12-15T11:38:35.503296",
        "meta_mean_motion": 15.19146195,
        "meta_eccentricity": 0.00016725,
        "meta_inclination": 97.4453,
        "meta_ra_of_asc_node": 354.825,
        "meta_arg_of_pericenter": 86.3192,
        "meta_mean_anomaly": 273.8234,
        "meta_ephemeris_type": 0,
        "meta_classification_type": "U",
        "meta_norad_cat_id": 31698,
        "meta_element_set_no": 999,
        "meta_rev_at_epoch": 2533,
        "meta_bstar": 7.6554338e-05,
        "meta_mean_motion_dot": 1.541e-05,
        "meta_mean_motion_ddot": 0,
        "tle_line1": "1 31698U 07026A   25349.48513314  .00001541  00000+0  76554-4 0  9995",
        "tle_line2": "2 31698  97.4453 354.8250 0001672  86.3192 273.8234 15.19146195 25337"
      },
      "geometry": {
        "type": "Point",
        "coordinates": [
          80.62637404311045,
          -82.51328082771121
        ]
      }
    },
    {
      "type": "Feature",
      "properties": {
        "norad_id": 32060,
        "name": "WORLDVIEW-1 (WV-1)",
        "group": "resource",
        "lat": -2.971489111206934,
        "lon": 108.79060929681613,
        "alt_km": 495.22249238820586,
        "timestamp": "2025-12-16T23:36:35.841459+00:00",
        "meta_object_name": "WORLDVIEW-1 (WV-1)",
        "meta_object_id": "2007-041A",
        "meta_epoch": "2025-12-16T07:52:21.788544",
        "meta_mean_motion": 15.2475071,
        "meta_eccentricity": 8.409e-05,
        "meta_inclination": 97.3837,
        "meta_ra_of_asc_node": 107.7585,
        "meta_arg_of_pericenter": 113.6385,
        "meta_mean_anomaly": 246.4942,
        "meta_ephemeris_type": 0,
        "meta_classification_type": "U",
        "meta_norad_cat_id": 32060,
        "meta_element_set_no": 999,
        "meta_rev_at_epoch": 1502,
        "meta_bstar": 0.00026028215,
        "meta_mean_motion_dot": 6.376e-05,
        "meta_mean_motion_ddot": 0,
        "tle_line1": "1 32060U 07041A   25350.32802996  .00006376  00000+0  26028-3 0  9999",
        "tle_line2": "2 32060  97.3837 107.7585 0000840 113.6385 246.4942 15.24750710 15023"
      },
      "geometry": {
        "type": "Point",
        "coordinates": [
          108.79060929681613,
          -2.971489111206934
        ]
      }
    },
    {
      "type": "Feature",
      "properties": {
        "norad_id": 32289,
        "name": "YAOGAN-3",
        "group": "resource",
        "lat": 17.423679233876328,
        "lon": 15.093667891264658,
        "alt_km": 598.2676484086305,
        "timestamp": "2025-12-16T23:36:35.841469+00:00",
        "meta_object_name": "YAOGAN-3",
        "meta_object_id": "2007-055A",
        "meta_epoch": "2025-12-16T09:01:28.286112",
        "meta_mean_motion": 14.89881056,
        "meta_eccentricity": 0.00013569,
        "meta_inclination": 97.837,
        "meta_ra_of_asc_node": 16.9688,
        "meta_arg_of_pericenter": 74.7895,
        "meta_mean_anomaly": 285.3472,
        "meta_ephemeris_type": 0,
        "meta_classification_type": "U",
        "meta_norad_cat_id": 32289,
        "meta_element_set_no": 999,
        "meta_rev_at_epoch": 97863,
        "meta_bstar": 0.00031599409,
        "meta_mean_motion_dot": 2.983e-05,
        "meta_mean_motion_ddot": 0,
        "tle_line1": "1 32289U 07055A   25350.37602183  .00002983  00000+0  31599-3 0  9997",
        "tle_line2": "2 32289  97.8370  16.9688 0001356  74.7895 285.3472 14.89881056978637"
      },
      "geometry": {
        "type": "Point",
        "coordinates": [
          15.093667891264658,
          17.423679233876328
        ]
      }
    }
  ]
}